{
    "links": {
        "self": "http://www.neowsapp.com/rest/v1/neo/3689341?api_key=iIulBulltgU6a56xZRHN4H3l9WmuAYTsLGpBGhQ2"
    },
    "id": "3689341",
    "neo_reference_id": "3689341",
    "name": "(2014 SS141)",
    "designation": "2014 SS141",
    "nasa_jpl_url": "http://ssd.jpl.nasa.gov/sbdb.cgi?sstr=3689341",
    "absolute_magnitude_h": 24.1,
    "estimated_diameter": {
        "kilometers": {
            "estimated_diameter_min": 0.040230458,
            "estimated_diameter_max": 0.0899580388
        },
        "meters": {
            "estimated_diameter_min": 40.2304579834,
            "estimated_diameter_max": 89.9580388169
        },
        "miles": {
            "estimated_diameter_min": 0.0249980399,
            "estimated_diameter_max": 0.0558973165
        },
        "feet": {
            "estimated_diameter_min": 131.9896957704,
            "estimated_diameter_max": 295.1379320721
        }
    },
    "is_potentially_hazardous_asteroid": false,
    "close_approach_data": [
        {
            "close_approach_date": "2007-10-18",
            "close_approach_date_full": "2007-Oct-18 04:18",
            "epoch_date_close_approach": 1192681080000,
            "relative_velocity": {
                "kilometers_per_second": "4.3726162299",
                "kilometers_per_hour": "15741.4184275806",
                "miles_per_hour": "9781.1052446264"
            },
            "miss_distance": {
                "astronomical": "0.2746347528",
                "lunar": "106.8329188392",
                "kilometers": "41084774.046856536",
                "miles": "25528894.8021347568"
            },
            "orbiting_body": "Earth"
        },
        {
            "close_approach_date": "2014-09-27",
            "close_approach_date_full": "2014-Sep-27 15:30",
            "epoch_date_close_approach": 1411831800000,
            "relative_velocity": {
                "kilometers_per_second": "4.6139792251",
                "kilometers_per_hour": "16610.3252101929",
                "miles_per_hour": "10321.0101285223"
            },
            "miss_distance": {
                "astronomical": "0.1596417566",
                "lunar": "62.1006433174",
                "kilometers": "23882066.750418442",
                "miles": "14839628.1560088196"
            },
            "orbiting_body": "Earth"
        },
        {
            "close_approach_date": "2021-09-17",
            "close_approach_date_full": "2021-Sep-17 09:22",
            "epoch_date_close_approach": 1631870520000,
            "relative_velocity": {
                "kilometers_per_second": "4.7004557137",
                "kilometers_per_hour": "16921.6405692083",
                "miles_per_hour": "10514.4493859061"
            },
            "miss_distance": {
                "astronomical": "0.1533961778",
                "lunar": "59.6711131642",
                "kilometers": "22947741.465021286",
                "miles": "14259065.3447183068"
            },
            "orbiting_body": "Earth"
        },
        {
            "close_approach_date": "2028-08-31",
            "close_approach_date_full": "2028-Aug-31 03:36",
            "epoch_date_close_approach": 1851305760000,
            "relative_velocity": {
                "kilometers_per_second": "4.8143402519",
                "kilometers_per_hour": "17331.6249067738",
                "miles_per_hour": "10769.197709434"
            },
            "miss_distance": {
                "astronomical": "0.2652596022",
                "lunar": "103.1859852558",
                "kilometers": "39682271.486167314",
                "miles": "24657420.1217403732"
            },
            "orbiting_body": "Earth"
        }
    ],
    "orbital_data": {
        "orbit_id": "13",
        "orbit_determination_date": "2017-04-06 08:38:38",
        "first_observation_date": "2014-09-19",
        "last_observation_date": "2014-10-26",
        "data_arc_in_days": 37,
        "observations_used": 30,
        "orbit_uncertainty": "6",
        "minimum_orbit_intersection": ".137918",
        "jupiter_tisserand_invariant": "4.596",
        "epoch_osculation": "2459000.5",
        "eccentricity": ".2164026087784617",
        "semi_major_axis": "1.455700706904237",
        "inclination": "8.394910193417207",
        "ascending_node_longitude": "2.323024877456076",
        "orbital_period": "641.5146316812328",
        "perihelion_distance": "1.140683276329509",
        "perihelion_argument": "358.1239473575451",
        "aphelion_distance": "1.770718137478965",
        "perihelion_time": "2458843.879840751748",
        "mean_anomaly": "87.89083606963975",
        "mean_motion": ".5611719237900146",
        "equinox": "J2000",
        "orbit_class": {
            "orbit_class_type": "AMO",
            "orbit_class_description": "Near-Earth asteroid orbits similar to that of 1221 Amor",
            "orbit_class_range": "1.017 AU < q (perihelion) < 1.3 AU"
        }
    },
    "is_sentry_object": false
}